C/2017 U7 (PANSTARRS),h,09/14.0232/2019,142.5939,276.2449,326.2927,1.001256,6.422043,2000,8.3,2.0
# From MPC114600
C/2017 W2 (Leonard),e,98.1990,312.8405,169.0598,13.66853,0.0195039,0.71077315,21.6222,11/14.0/2020,2000,g 11.0,4.0
# From MPC114601
P/2017 W3 (Gibbs),e,18.1712,210.3246,327.7391,7.843661,0.0448669,0.50790828,44.3585,11/14.0/2020,2000,g 10.5,4.0
# From MPC115883
C/2017 X1 (PANSTARRS),e,31.3036,251.1298,283.2876,31.38056,0.0056068,0.85121810,4.9486,11/14.0/2020,2000,g 10.0,4.0
# From MPC117069
C/2017 Y1 (PANSTARRS),e,55.2664,307.5303,134.3262,1861,0.0000123,0.99800481,0.0000,08/31.1445/2017,2000,g 11.5,4.0
# From MPEC 2020-UR0
C/2017 Y2 (PANSTARRS),h,11/04.6272/2020,128.4158,65.9917,147.8725,1.000977,4.632052,2000,15.0,4.0
# From MPC111770
P/2017 Y3 (Leonard),e,27.5632,153.8515,67.5939,9.848388,0.0318901,0.87019327,32.1198,11/14.0/2020,2000,g 16.5,4.0
# From MPC114601
C/2018 A1 (PANSTARRS),e,53.6033,336.6472,96.2822,25.10726,0.0078344,0.90379157,8.7794,11/14.0/2020,2000,g 12.5,4.0
# From MPEC 2020-UR0
C/2018 A3 (ATLAS),e,139.5461,194.2940,86.3960,472.7844,0.0000959,0.99307159,0.0000,01/12.6468/2019,2000,g  8.5,4.0
# From MPC114601
C/2018 A4 (PANSTARRS),e,3.1483,97.6309,356.0527,12.20803,0.0231066,0.80337360,21.0385,11/14.0/2020,2000,g 14.0,4.0
# From MPC109147
P/2018 A5 (PANSTARRS),e,23.5798,87.8259,359.5846,5.636238,0.0736580,0.52224916,84.5521,11/14.0/2020,2000,g 15.0,4.0
# From MPEC 2020-UR0
C/2018 A6 (Gibbs),e,76.9733,340.3783,264.5583,15.32968,0.0164212,0.80308056,8.0253,11/14.0/2020,2000,g  9.0,4.0
# From MPC118841
C/2018 B1 (Lemmon),h,03/29.5958/2018,162.4201,133.1907,68.3093,1.001155,5.115730,2000,9.0,4.0
# From MPC114601
P/2018 C1 (Lemmon-Read),e,5.1246,270.3878,235.6506,5.653608,0.0733188,0.53363770,72.6969,11/14.0/2020,2000,g 13.5,4.0
# From MPC114601
C/2018 C2 (Lemmon),h,06/01.7958/2018,34.4591,91.1448,134.1132,1.000827,1.957807,2000,13.0,4.0
# From MPEC 2020-AA5
C/2018 DO4 (Lemmon),e,160.4742,251.1372,175.9813,25.74918,0.0075433,0.90653612,3.4221,11/14.0/2020,2000,g 11.0,4.0
# From MPC114602
C/2018 E1 (ATLAS),e,72.5118,146.8604,299.4088,53.97790,0.0024853,0.94992948,2.3404,11/14.0/2020,2000,g 10.5,4.0
# From MPC114602
C/2018 E2 (Barros),e,97.7152,67.1971,277.4718,3940,0.0000040,0.99900503,0.0000,12/23.9909/2017,2000,g 10.5,4.0
# From MPC114602
C/2018 EN4 (NEOWISE),e,81.6312,136.1453,35.0073,18.23798,0.0126543,0.92049896,11.2738,11/14.0/2020,2000,g 15.0,4.0
# From MPC114602
C/2018 EF9 (Lemmon),e,84.6461,172.5686,72.6203,562.6016,0.0000739,0.99723163,0.0000,05/22.8725/2018,2000,g 18.0,2.0
# From MPC115883
C/2018 F1 (Grauer),e,46.0765,177.2760,71.6363,288.7977,0.0002008,0.98963275,0.0000,12/13.8520/2018,2000,g 11.5,4.0
# From MPC110084
C/2018 F3 (Johnson),p,08/15.2314/2017,105.5348,293.0113,2.483172,173.0311,2000,13.0,4.0
# From MPC119996
C/2018 F4 (PANSTARRS),h,12/04.1454/2019,78.0950,26.5123,263.2266,1.001379,3.440162,2000,11.9,2.0
# From MPEC 2020-UR0
C/2018 F4-A (PANSTARRS),h,12/04.2248/2019,78.1215,26.4916,263.2724,1.001989,3.442428,2000,11.0,6.0
# From MPC xxxxx
C/2018 F4-B (PANSTARRS),h,12/04.0334/2019,78.1010,26.5087,263.1974,1.001691,3.439718,2000,11.2,6.0
# From MPC114602
P/2018 H2 (PANSTARRS),e,7.3880,68.4134,119.9879,4.394093,0.1070040,0.53995605,109.8219,11/14.0/2020,2000,g 16.6,2.0
# From MPC114602
C/2018 K1 (Weiland),e,164.1960,260.0338,325.0591,29.93667,0.0060173,0.93715310,5.7298,11/14.0/2020,2000,g 14.9,4.0
# From MPC118094
C/2018 KJ3 (Lemmon),e,136.7089,91.5986,217.6557,804.9997,0.0000432,0.99549168,0.0000,09/09.6523/2019,2000,g 12.2,2.0
# From MPC114602
P/2018 L1 (PANSTARRS),e,10.5932,268.6302,17.9727,3.650408,0.1413162,0.48292240,103.4974,11/14.0/2020,2000,g 15.0,4.0
# From MPC118841
C/2018 L2 (ATLAS),e,67.3954,243.0237,56.2685,258.1015,0.0002377,0.99336464,0.0000,12/02.6731/2018,2000,g 10.0,4.0
# From MPC114603
P/2018 L4 (PANSTARRS),e,26.6242,145.1597,140.5484,4.939962,0.0897674,0.66021577,75.0553,11/14.0/2020,2000,g 17.5,4.0
# From MPC119996
P/2018 L5 (Leonard),e,2.2083,219.1330,93.7854,3.627625,0.1426496,0.36478367,131.8043,11/14.0/2020,2000,g 14.5,4.0
# From MPC117070
C/2018 M1 (Catalina),e,37.2866,339.4205,14.1585,21.34247,0.0099962,0.93896934,8.5743,11/14.0/2020,2000,g 15.5,4.0
# From MPC112393
C/2018 N1 (NEOWISE),e,159.4448,292.4439,354.6130,345.8195,0.0001533,0.99621342,0.0000,08/01.9263/2018,2000,g 15.5,4.0
# From MPEC 2020-UR0
C/2018 N2 (ASASSN),h,11/10.9692/2019,77.5280,25.2486,24.4018,1.000120,3.124757,2000,6.0,4.0
# From MPC114603
C/2018 O1 (ATLAS),e,154.0402,87.6395,162.5673,27.87878,0.0066957,0.94404058,5.3929,11/14.0/2020,2000,g 17.0,4.0
# From MPC114603
P/2018 P3 (PANSTARRS),e,8.9087,59.1886,305.8704,3.006423,0.1890727,0.41638177,144.8878,11/14.0/2020,2000,g 14.5,4.0
# From MPC114603
P/2018 P4 (PANSTARRS),e,23.1067,353.0796,8.2022,6.670508,0.0572092,0.45033058,42.1724,11/14.0/2020,2000,g 12.0,4.0
# From MPC118094
C/2018 P5 (PANSTARRS),e,7.2535,216.2432,131.7097,12.79217,0.0215421,0.64219644,13.4873,11/14.0/2020,2000,g 11.0,4.0
# From MPC118841
C/2018 R3 (Lemmon),e,69.7264,324.6356,112.8432,1711,0.0000139,0.99924621,0.0000,06/07.2139/2019,2000,g  9.5,4.0
# From MPC112393
C/2018 R4 (Fuls),e,11.6836,298.4361,345.2660,327.4304,0.0001664,0.99476811,0.0000,03/03.6623/2018,2000,g 14.0,4.0
# From MPC114603
C/2018 R5 (Lemmon),e,103.7483,171.1320,178.0433,22.78604,0.0090615,0.84101248,6.1074,11/14.0/2020,2000,g 11.5,4.0
# From MPEC 2020-UR0
C/2018 U1 (Lemmon),h,11/02.8072/2021,108.3001,75.4782,180.4246,1.001005,4.993679,2000,5.0,4.0
# From MPC114604
C/2018 V1 (Machholz-Fujikawa-Iwamoto),h,12/03.3607/2018,144.0538,128.8792,88.8372,1.000366,0.385961,2000,12.0,4.0
# From MPC115884
C/2018 V2 (ATLAS),e,159.1641,357.0537,318.9570,25.25035,0.0077679,0.90184301,5.5809,11/14.0/2020,2000,g 15.0,4.0
# From MPC114604
P/2018 VN2 (Leonard),e,18.2480,226.5207,138.7347,4.064819,0.1202658,0.47838214,107.3281,11/14.0/2020,2000,g 15.0,4.0
# From MPC117070
A/2018 V3,e,164.9780,308.6568,3.5101,121.2690,0.0007380,0.98895044,0.0000,09/08.6785/2019,2000,g 15.7,2.0
# From MPC114604
C/2018 V4 (Africano),e,69.0030,78.3701,359.9527,207.2679,0.0003303,0.98457230,0.0000,03/01.4552/2019,2000,g 12.5,4.0
# From MPC114604
P/2018 V5 (Trujillo-Sheppard),e,10.5843,171.2915,260.7107,8.954607,0.0367819,0.47456650,28.4365,11/14.0/2020,2000,g 12.5,4.0
# From MPC115884
C/2018 W1 (Catalina),e,83.2607,233.5920,251.2517,21.73136,0.0097291,0.93739044,5.3728,11/14.0/2020,2000,g 15.7,2.0
# From MPC119996
C/2018 W2 (Africano),h,09/05.6773/2019,116.6169,181.8535,157.9754,1.000486,1.454912,2000,9.5,4.0
# From MPC119996
C/2018 X2 (Fitzsimmons),e,23.0694,340.8268,162.0606,148.7977,0.0005430,0.98570909,0.0000,07/08.4728/2019,2000,g 12.0,4.0
# From MPC114604
C/2018 X3 (PANSTARRS),e,43.3701,78.9120,359.7671,12.38224,0.0226207,0.78218878,15.4819,11/14.0/2020,2000,g 14.5,4.0
# From MPC118842
C/2018 Y1 (Iwamoto),e,160.4005,147.5086,358.0311,141.9355,0.0005829,0.99094318,0.0000,02/07.0244/2019,2000,g 11.5,4.0
# From MPC114605
P/2018 Y2 (Africano),e,11.6828,297.2666,162.3792,7.463966,0.0483337,0.47866040,32.9704,11/14.0/2020,2000,g 11.5,4.0
# From MPC114605
P/2019 A1 (PANSTARRS),e,13.7442,312.3024,150.8029,5.123871,0.0849780,0.56837153,65.0290,11/14.0/2020,2000,g 16.0,4.0
# From MPC114605
P/2019 A2 (ATLAS),e,14.8604,139.4675,324.0920,5.724060,0.0719694,0.38136826,52.1282,11/14.0/2020,2000,g 10.5,4.0
# From MPC114605
P/2019 A3 (PANSTARRS),e,15.3662,31.3058,325.4865,3.147068,0.1765407,0.26545335,147.3903,11/14.0/2020,2000,g 16.0,4.0
# From MPC114605
P/2019 A4 (PANSTARRS),e,13.3210,119.2989,341.7499,2.613956,0.2332151,0.08885347,165.7023,11/14.0/2020,2000,g 15.0,4.0
# From MPC118842
C/2019 A5 (PANSTARRS),e,67.5561,146.6249,355.9876,21.59749,0.0098197,0.70722412,5.1476,11/14.0/2020,2000,g  9.5,4.0
# From MPC114605
P/2019 A6 (Lemmon-PANSTARRS),e,33.2300,280.2701,156.2236,5.363857,0.0793393,0.63894015,64.0952,11/14.0/2020,2000,g 16.0,4.0
# From MPC114605
P/2019 A7 (PANSTARRS),e,17.7745,280.5229,119.2805,3.185787,0.1733321,0.16107781,180.5773,11/14.0/2020,2000,g 13.5,4.0
# From MPC115884
P/2019 A8 (PANSTARRS),e,3.0574,127.5526,22.2766,3.360883,0.1599646,0.45032963,126.7420,11/14.0/2020,2000,g 16.0,4.0
# From MPC118842
C/2019 A9 (PANSTARRS),e,84.2190,278.3852,237.9628,39.93782,0.0039051,0.96418256,1.8604,11/14.0/2020,2000,g 15.0,4.0
# From MPC114606
C/2019 B1 (Africano),e,123.3638,290.4352,174.8500,147.2058,0.0005518,0.98915339,0.0000,03/19.8041/2019,2000,g 16.0,4.0
# From MPEC 2020-UR0
P/2019 B2 (Groeller),e,16.8314,176.3426,359.1062,3.861266,0.1299001,0.37328697,68.0779,11/14.0/2020,2000,g 14.5,4.0
# From MPC115885
C/2019 B3 (PANSTARRS),h,01/19.9054/2021,66.5384,358.4277,263.8982,1.002573,6.823646,2000,5.5,4.0
# From MPEC 2020-AA5
C/2019 C1,e,36.0227,212.3901,319.1922,770.4662,0.0000461,0.99145822,0.0000,05/05.6691/2020,2000,g 10.0,4.0
# From MPC118842
C/2019 D1 (Flewelling),e,34.0849,231.7181,70.5148,140.9813,0.0005888,0.98880323,0.0000,05/11.8759/2019,2000,g 13.0,4.0
# From MPEC 2020-UR0
C/2019 E3 (ATLAS),h,11/12.3841/2023,84.2899,347.2380,280.6063,1.004160,10.315116,2000,2.5,4.0
# From MPC119997
C/2019 F1 (ATLAS-Africano),h,06/22.7725/2021,54.1757,38.7262,251.1154,1.003597,3.595740,2000,5.5,4.0
# From MPC119997
C/2019 F2 (ATLAS),e,19.1930,175.7500,11.1893,16.70307,0.0144381,0.86615285,6.2349,11/14.0/2020,2000,g 12.0,4.0
# From MPEC 2020-AA5
A/2019 G2,e,159.2087,208.1507,82.6401,683.4569,0.0000552,0.99664792,0.0000,12/10.0136/2019,2000,g 16.5,2.0
# From MPEC 2020-SI8
A/2019 G3,e,156.8162,49.7831,161.8836,17.16989,0.0138533,0.83368334,9.8561,11/14.0/2020,2000,g 17.1,2.0
# From MPC118094
A/2019 G4,h,09/15.9783/2018,138.3861,130.4643,287.8838,1.001366,5.858544,2000,13.0,2.0
# From MPC114607
P/2019 GG21 (PANSTARRS),e,6.0838,340.5825,208.4680,7.471647,0.0482591,0.47300345,26.7019,11/14.0/2020,2000,g 12.0,4.0
# From MPC115885
C/2019 H1 (NEOWISE),e,104.5736,269.1927,19.3147,233.3711,0.0002765,0.99209121,0.0000,04/27.7847/2019,2000,g 15.5,4.0
# From MPC118842
